#aV2014 12  3  0  0  0.00000000     288 DD+AD WGS84 FIT  NGA
## 1821 259200.00000000   300.00000000 56994 0.0000000000000
+   32     1  2  3  4  5  6  7  8  9 10 11 12 13 14 15 16 17
+         18 19 20 21 22 23 24 25 26 27 28 29 30 31 32  0  0
+          0  0  0  0  0  0  0  0  0  0  0  0  0  0  0  0  0
+          0  0  0  0  0  0  0  0  0  0  0  0  0  0  0  0  0
+          0  0  0  0  0  0  0  0  0  0  0  0  0  0  0  0  0
++         2  2  2  2  2  2  2  2  2  2  2  2  2  2  2  2  2
++         2  2  2  2  2  2  2  2  2  2  2  2  2  2  2  0  0
++         0  0  0  0  0  0  0  0  0  0  0  0  0  0  0  0  0
++         0  0  0  0  0  0  0  0  0  0  0  0  0  0  0  0  0
++         0  0  0  0  0  0  0  0  0  0  0  0  0  0  0  0  0
%c cc cc ccc ccc cccc cccc cccc cccc ccccc ccccc ccccc ccccc
%c cc cc ccc ccc cccc cccc cccc cccc ccccc ccccc ccccc ccccc
%f  0.0000000  0.000000000  0.00000000000  0.000000000000000
%f  0.0000000  0.000000000  0.00000000000  0.000000000000000
%i    0    0    0    0      0      0      0      0         0
%i    0    0    0    0      0      0      0      0         0
/*      NGA, ST. LOUIS,MO.                                  
/*   EPHEMERIS COMPUTED FROM  1 DAYS OF DATA                
/*   EPOCHA SMOOTHER                                       
/* CCCCCCCCCCCCCCCCCCCCCCCCCCCCCCCCCCCCCCCCCCCCCCCCCCCCCCCCC
*  2014 12  3 14  5  0.00000000
P  1  22931.223245  13285.517788   2737.207991    -11.508240                    
V  1   1417.703083   4179.350607 -31405.190333      0.003614                    
P  2  -7314.697642 -19439.377623  17140.271330    533.692168                    
V  2  18713.253358   9750.290191  18933.201480      0.022104                    
P  3  11893.846409  15194.154498  18384.902761     44.376295                    
V  3  -3057.118435  23017.778774 -17083.130804      0.333743                    
P  4  17786.909367  18449.103069  -7794.795343     -3.909538                    
V  4  -9549.121589  -2653.877094 -28982.686258     -0.004347                    
P  5  -2806.138414 -25610.691645  -6112.819888   -310.628543                    
V  5   3752.497891  -7529.666986  30254.487571      0.046510                    
P  6   6999.256107 -13570.273023  21718.239106     20.195844                    
V  6  23059.301859  15188.397180   2040.331855      0.067683                    
P  7  22382.665785   4264.346765 -13842.075787    418.685698                    
V  7  13365.863130  11551.196037  24644.821315      0.036489                    
P  8  17165.673298  19953.189781   5688.723585     16.578647                    
V  8  -5871.357918  -3640.506604  31033.103786      0.001652                    
P  9  24669.562875  -6204.871046   7659.650828    -18.938498                    
V  9  -7533.674081   6710.080794  29682.500998     -0.085778                    
P 10   9305.905969 -22208.186506  10343.705442   -152.516464                    
V 10   2324.164643  14089.691927  27614.035956     -0.016923                    
P 11  22343.900367  12503.592481  -7875.308973   -540.891833                    
V 11 -10215.475863   1809.793808 -27817.207089     -0.028464                    
P 12 -10607.622062 -15649.038399  18670.161120    250.815560                    
V 12   3573.355661 -23467.251215 -17362.443159      0.028416                    
P 13  13124.119371 -16541.047939 -16404.464237    -66.217894                    
V 13  19668.273780  -5623.242308  21438.849425     -0.034862                    
P 14 -19660.596298  15025.329485   9685.180407    109.880082                    
V 14 -12022.172510   2256.809433 -28731.812312     -0.036130                    
P 15 -16280.404328  -7679.720350 -19697.197551   -218.174029                    
V 15  21230.000407 -12985.436084 -12212.784564     -0.022316                    
P 16    903.210082  25574.509262  -6412.572379   -176.077065                    
V 16  -3143.514106   7784.361761  31224.194806      0.029183                    
P 17  20284.033116 -14993.273694   8210.834235   -141.514596                    
V 17  10236.297789  -1804.064428 -29796.258938     -0.025131                    
P 18 -15108.266528   8896.092009 -19401.425219    362.561370                    
V 18   -343.077140 -25930.256585 -11664.712787      0.026339                    
P 19  10511.357670  11873.462251 -21539.677506   -490.848615                    
V 19 -25008.890789   9799.385090  -6415.917486     -0.016908                    
P 20  14911.098982   9048.911166  19844.736194    263.341849                    
V 20  -1346.420697  25760.096679 -10556.329484      0.041324                    
P 21 -20199.344548   1595.744511 -16714.874445   -398.209749                    
V 21 -17571.154606 -14125.054620  18725.965680     -0.020912                    
P 22 -10224.778037  21182.510028 -11961.047612    293.118432                    
V 22  -2618.637672 -15837.596921 -25524.440749      0.036091                    
P 23  21288.545812   2499.150046  16081.764781    -71.801716                    
V 23 -17269.270653  10331.002767  21006.573923     -0.027591                    
P 24 -22062.067112 -14900.729377   -600.303212    -39.447855                    
V 24   2201.875529  -2022.516432 -31532.434180     -0.006011                    
P 25 -14771.473038  -1134.530902  21968.181518     11.267315                    
V 25   1820.919936 -27969.216203    -80.131837     -0.019629                    
P 26  -2107.866338 -15340.625977 -22217.734123   -144.226821                    
V 26  25086.745056  -8935.291920   4179.609655     -0.131845                    
P 27   -888.535813  16484.058589 -20803.395929     34.385120                    
V 27 -24036.201542  10923.906920   9763.105556      0.027581                    
P 28  12435.800253 -17318.072990 -15141.647178    402.702172                    
V 28  -1092.969322  20388.712150 -23388.732572      0.026991                    
P 29 -24487.524490   3193.137617   9755.766322    577.204985                    
V 29  10478.714068  -6899.097633  28677.855418      0.024726                    
P 30  15983.267215  -5717.784883 -20436.299596    -83.469096                    
V 30  19779.388514  16834.185823  10710.230716     -0.016549                    
P 31  -5099.090270  14467.868296  21795.942473    328.028241                    
V 31 -22479.420265 -15520.754486   5396.379930     -0.006581                    
P 32   5963.383351  22696.734414  12954.990724   -279.477601                    
V 32  -4640.035929  15741.333335 -24912.371487      0.088556                    
EOF
